[{"OBJECT_NAME":"SEAHAWK-1","OBJECT_ID":"2018-099BQ","EPOCH":"2026-03-09T17:26:19.455648","MEAN_MOTION":15.21024633,"ECCENTRICITY":0.00069788,"INCLINATION":97.4094,"RA_OF_ASC_NODE":122.7887,"ARG_OF_PERICENTER":302.9769,"MEAN_ANOMALY":57.0796,"EPHEMERIS_TYPE":0,"CLASSIFICATION_TYPE":"U","NORAD_CAT_ID":43820,"ELEMENT_SET_NO":999,"REV_AT_EPOCH":39740,"BSTAR":0.00046242233,"MEAN_MOTION_DOT":0.00010205,"MEAN_MOTION_DDOT":0},{"OBJECT_NAME":"CAS500-1","OBJECT_ID":"2021-022A","EPOCH":"2026-03-09T23:57:39.791808","MEAN_MOTION":15.20304346,"ECCENTRICITY":0.00036012,"INCLINATION":97.4003,"RA_OF_ASC_NODE":326.196,"ARG_OF_PERICENTER":278.8383,"MEAN_ANOMALY":81.2444,"EPHEMERIS_TYPE":0,"CLASSIFICATION_TYPE":"U","NORAD_CAT_ID":47932,"ELEMENT_SET_NO":999,"REV_AT_EPOCH":27569,"BSTAR":0.00044667126,"MEAN_MOTION_DOT":9.645e-5,"MEAN_MOTION_DDOT":0}]
